{
  "type": "FeatureCollection",
  "features": [
    {
      "type": "Feature",
      "properties": {
        "norad_id": 66753,
        "name": "ICEYE-X60",
        "group": "last-30-days",
        "lat": -41.38152791347207,
        "lon": 78.90459609023613,
        "alt_km": 520.0267233678478,
        "timestamp": "2025-12-26T18:39:30.997085+00:00",
        "meta_object_name": "ICEYE-X60",
        "meta_object_id": "2025-276CR",
        "meta_epoch": "2025-12-26T14:05:40.660224",
        "meta_mean_motion": 15.17421804,
        "meta_eccentricity": 0.00011593,
        "meta_inclination": 97.4401,
        "meta_ra_of_asc_node": 72.1064,
        "meta_arg_of_pericenter": 246.2662,
        "meta_mean_anomaly": 113.845,
        "meta_ephemeris_type": 0,
        "meta_classification_type": "U",
        "meta_norad_cat_id": 66753,
        "meta_element_set_no": 999,
        "meta_rev_at_epoch": 422,
        "meta_bstar": 0.00043663795,
        "meta_mean_motion_dot": 8.67e-05,
        "meta_mean_motion_ddot": 0,
        "tle_line1": "1 66753U 25276CR  25360.58727616  .00008670  00000+0  43664-3 0  9993",
        "tle_line2": "2 66753  97.4401  72.1064 0001159 246.2662 113.8450 15.17421804  4221"
      },
      "geometry": {
        "type": "Point",
        "coordinates": [
          78.90459609023613,
          -41.38152791347207
        ]
      }
    },
    {
      "type": "Feature",
      "properties": {
        "norad_id": 66754,
        "name": "ICEYE-X61",
        "group": "last-30-days",
        "lat": 6.430524219627058,
        "lon": 71.46866290945366,
        "alt_km": 516.3532754754578,
        "timestamp": "2025-12-26T18:39:30.997095+00:00",
        "meta_object_name": "ICEYE-X61",
        "meta_object_id": "2025-276CS",
        "meta_epoch": "2025-12-26T13:53:00.862944",
        "meta_mean_motion": 15.17865974,
        "meta_eccentricity": 0.00027131,
        "meta_inclination": 97.4398,
        "meta_ra_of_asc_node": 72.117,
        "meta_arg_of_pericenter": 179.2267,
        "meta_mean_anomaly": 180.8972,
        "meta_ephemeris_type": 0,
        "meta_classification_type": "U",
        "meta_norad_cat_id": 66754,
        "meta_element_set_no": 999,
        "meta_rev_at_epoch": 422,
        "meta_bstar": -9.09286e-05,
        "meta_mean_motion_dot": -1.906e-05,
        "meta_mean_motion_ddot": 0,
        "tle_line1": "1 66754U 25276CS  25360.57848221 -.00001906  00000+0 -90929-4 0  9993",
        "tle_line2": "2 66754  97.4398  72.1170 0002713 179.2267 180.8972 15.17865974  4221"
      },
      "geometry": {
        "type": "Point",
        "coordinates": [
          71.46866290945366,
          6.430524219627058
        ]
      }
    },
    {
      "type": "Feature",
      "properties": {
        "norad_id": 66755,
        "name": "ICEYE-X62",
        "group": "last-30-days",
        "lat": -19.316649137404386,
        "lon": 74.92641954158566,
        "alt_km": 518.7666892797861,
        "timestamp": "2025-12-26T18:39:30.997107+00:00",
        "meta_object_name": "ICEYE-X62",
        "meta_object_id": "2025-276CT",
        "meta_epoch": "2025-12-26T13:59:49.642080",
        "meta_mean_motion": 15.17657068,
        "meta_eccentricity": 0.00012668,
        "meta_inclination": 97.44,
        "meta_ra_of_asc_node": 72.1102,
        "meta_arg_of_pericenter": 204.3978,
        "meta_mean_anomaly": 155.7196,
        "meta_ephemeris_type": 0,
        "meta_classification_type": "U",
        "meta_norad_cat_id": 66755,
        "meta_element_set_no": 999,
        "meta_rev_at_epoch": 422,
        "meta_bstar": 0.00027629235,
        "meta_mean_motion_dot": 5.496e-05,
        "meta_mean_motion_ddot": 0,
        "tle_line1": "1 66755U 25276CT  25360.58321345  .00005496  00000+0  27629-3 0  9990",
        "tle_line2": "2 66755  97.4400  72.1102 0001266 204.3978 155.7196 15.17657068  4224"
      },
      "geometry": {
        "type": "Point",
        "coordinates": [
          74.92641954158566,
          -19.316649137404386
        ]
      }
    },
    {
      "type": "Feature",
      "properties": {
        "norad_id": 66756,
        "name": "TRANSPORTER-15CU",
        "group": "last-30-days",
        "lat": 13.648288134876712,
        "lon": 70.50119257801005,
        "alt_km": 513.981250091535,
        "timestamp": "2025-12-26T18:39:30.997119+00:00",
        "meta_object_name": "TRANSPORTER-15CU",
        "meta_object_id": "2025-276CU",
        "meta_epoch": "2025-12-26T13:51:07.110432",
        "meta_mean_motion": 15.17986056,
        "meta_eccentricity": 0.00018408,
        "meta_inclination": 97.4406,
        "meta_ra_of_asc_node": 72.1228,
        "meta_arg_of_pericenter": 150.8996,
        "meta_mean_anomaly": 209.2341,
        "meta_ephemeris_type": 0,
        "meta_classification_type": "U",
        "meta_norad_cat_id": 66756,
        "meta_element_set_no": 999,
        "meta_rev_at_epoch": 422,
        "meta_bstar": 0.00031851091,
        "meta_mean_motion_dot": 6.408e-05,
        "meta_mean_motion_ddot": 0,
        "tle_line1": "1 66756U 25276CU  25360.57716563  .00006408  00000+0  31851-3 0  9996",
        "tle_line2": "2 66756  97.4406  72.1228 0001840 150.8996 209.2341 15.17986056  4222"
      },
      "geometry": {
        "type": "Point",
        "coordinates": [
          70.50119257801005,
          13.648288134876712
        ]
      }
    },
    {
      "type": "Feature",
      "properties": {
        "norad_id": 66757,
        "name": "TRANSPORTER-15CV",
        "group": "last-30-days",
        "lat": 23.562406135023153,
        "lon": 69.05896797732453,
        "alt_km": 510.1811407449104,
        "timestamp": "2025-12-26T18:39:30.997129+00:00",
        "meta_object_name": "TRANSPORTER-15CV",
        "meta_object_id": "2025-276CV",
        "meta_epoch": "2025-12-26T05:54:03.004704",
        "meta_mean_motion": 15.18289271,
        "meta_eccentricity": 0.00028631,
        "meta_inclination": 97.4409,
        "meta_ra_of_asc_node": 71.8035,
        "meta_arg_of_pericenter": 298.0607,
        "meta_mean_anomaly": 62.0337,
        "meta_ephemeris_type": 0,
        "meta_classification_type": "U",
        "meta_norad_cat_id": 66757,
        "meta_element_set_no": 999,
        "meta_rev_at_epoch": 417,
        "meta_bstar": 0.0052115974,
        "meta_mean_motion_dot": 0.00108292,
        "meta_mean_motion_ddot": 0,
        "tle_line1": "1 66757U 25276CV  25360.24586811  .00108292  00000+0  52116-2 0  9992",
        "tle_line2": "2 66757  97.4409  71.8035 0002863 298.0607  62.0337 15.18289271  4178"
      },
      "geometry": {
        "type": "Point",
        "coordinates": [
          69.05896797732453,
          23.562406135023153
        ]
      }
    },
    {
      "type": "Feature",
      "properties": {
        "norad_id": 66758,
        "name": "TRANSPORTER-15CW",
        "group": "last-30-days",
        "lat": 24.503550654012614,
        "lon": 68.9025443232192,
        "alt_km": 511.3295257580612,
        "timestamp": "2025-12-26T18:39:30.997139+00:00",
        "meta_object_name": "TRANSPORTER-15CW",
        "meta_object_id": "2025-276CW",
        "meta_epoch": "2025-12-26T13:48:15.424128",
        "meta_mean_motion": 15.18119766,
        "meta_eccentricity": 0.00015543,
        "meta_inclination": 97.4386,
        "meta_ra_of_asc_node": 72.1178,
        "meta_arg_of_pericenter": 136.2894,
        "meta_mean_anomaly": 223.8463,
        "meta_ephemeris_type": 0,
        "meta_classification_type": "U",
        "meta_norad_cat_id": 66758,
        "meta_element_set_no": 999,
        "meta_rev_at_epoch": 422,
        "meta_bstar": 0.00035694652,
        "meta_mean_motion_dot": 7.218e-05,
        "meta_mean_motion_ddot": 0,
        "tle_line1": "1 66758U 25276CW  25360.57517852  .00007218  00000+0  35695-3 0  9998",
        "tle_line2": "2 66758  97.4386  72.1178 0001554 136.2894 223.8463 15.18119766  4226"
      },
      "geometry": {
        "type": "Point",
        "coordinates": [
          68.9025443232192,
          24.503550654012614
        ]
      }
    },
    {
      "type": "Feature",
      "properties": {
        "norad_id": 66759,
        "name": "TRANSPORTER-15CX",
        "group": "last-30-days",
        "lat": 35.34905529410214,
        "lon": 67.00264339167926,
        "alt_km": 509.30543415510147,
        "timestamp": "2025-12-26T18:39:30.997149+00:00",
        "meta_object_name": "TRANSPORTER-15CX",
        "meta_object_id": "2025-276CX",
        "meta_epoch": "2025-12-26T12:10:29.179488",
        "meta_mean_motion": 15.18261229,
        "meta_eccentricity": 0.00016711,
        "meta_inclination": 97.4401,
        "meta_ra_of_asc_node": 72.0556,
        "meta_arg_of_pericenter": 150.7258,
        "meta_mean_anomaly": 209.407,
        "meta_ephemeris_type": 0,
        "meta_classification_type": "U",
        "meta_norad_cat_id": 66759,
        "meta_element_set_no": 999,
        "meta_rev_at_epoch": 421,
        "meta_bstar": -0.0016437629,
        "meta_mean_motion_dot": -0.00033558,
        "meta_mean_motion_ddot": 0,
        "tle_line1": "1 66759U 25276CX  25360.50728217 -.00033558  00000+0 -16438-2 0  9992",
        "tle_line2": "2 66759  97.4401  72.0556 0001671 150.7258 209.4070 15.18261229  4214"
      },
      "geometry": {
        "type": "Point",
        "coordinates": [
          67.00264339167926,
          35.34905529410214
        ]
      }
    }
  ]
}